NORAD_CAT_ID,OBJECT_NAME,OBJECT_TYPE,EPOCH,MEAN_MOTION,ECCENTRICITY,INCLINATION,RA_OF_ASC_NODE,ARG_OF_PERICENTER,MEAN_ANOMALY,BSTAR,MEAN_MOTION_DOT,MEAN_MOTION_DDOT,TLE_LINE0,TLE_LINE1,TLE_LINE2,SEMIMAJOR_AXIS,PERIOD,APOGEE,PERIGEE,DECAYED
52611.0,STARLINK-3980,PAYLOAD,2023-04-26 05:33:15,15.08829373,0.0001065,53.2165,310.8327,102.069,258.0422,0.00036584,5.538e-05,0.0,0 STARLINK-3980,1 52611U 22052P   23116.23143190  .00005538  00000-0  36584-3 0  9992,2 52611  53.2165 310.8327 0001065 102.0690 258.0422 15.08829373 52504,6917.913,95.438,540.515,539.041,0.0
52611.0,STARLINK-3980,PAYLOAD,2023-04-26 19:51:43,15.08846978,9.86e-05,53.2161,308.1561,105.0357,255.0744,0.00067899,0.00010537,0.0,0 STARLINK-3980,1 52611U 22052P   23116.82758977  .00010537  00000-0  67899-3 0  9990,2 52611  53.2161 308.1561 0000986 105.0357 255.0744 15.08846978 52597,6917.859,95.437,540.406,539.042,0.0
52611.0,STARLINK-3980,PAYLOAD,2023-04-27 11:45:34,15.08860192,9.38e-05,53.2161,305.1831,105.9047,254.2049,0.00058911,9.105e-05,0.0,0 STARLINK-3980,1 52611U 22052P   23117.48998294  .00009105  00000-0  58911-3 0  9995,2 52611  53.2161 305.1831 0000938 105.9047 254.2049 15.08860192 52690,6917.819,95.436,540.333,539.035,0.0
52611.0,STARLINK-3980,PAYLOAD,2023-04-27 21:17:52,15.08863902,9.24e-05,53.2164,303.3986,102.5341,257.5754,0.00050028,7.688e-05,0.0,0 STARLINK-3980,1 52611U 22052P   23117.88741808  .00007688  00000-0  50028-3 0  9991,2 52611  53.2164 303.3986 0000924 102.5341 257.5754 15.08863902 53129,6917.807,95.436,540.312,539.033,0.0
52611.0,STARLINK-3980,PAYLOAD,2023-04-28 05:14:48,15.08846367,6.53e-05,53.2156,301.9123,116.6741,243.4318,-6.3013e-05,-1.29e-05,0.0,0 STARLINK-3980,1 52611U 22052P   23118.21861910 -.00001290  00000-0 -63013-4 0  9990,2 52611  53.2156 301.9123 0000653 116.6741 243.4318 15.08846367 53177,6917.861,95.437,540.178,539.274,0.0
52611.0,STARLINK-3980,PAYLOAD,2023-04-28 21:08:40,15.08837418,9.54e-05,53.2157,298.938,95.0329,265.0772,8.4758e-05,1.061e-05,0.0,0 STARLINK-3980,1 52611U 22052P   23118.88102590  .00001061  00000-0  84758-4 0  9998,2 52611  53.2157 298.9380 0000954  95.0329 265.0772 15.08837418 53276,6917.888,95.438,540.413,539.093,0.0
52611.0,STARLINK-3980,PAYLOAD,2023-04-29 05:05:36,15.08846509,9.49e-05,53.2165,297.4514,97.9996,262.1104,0.00049153,7.545e-05,0.0,0 STARLINK-3980,1 52611U 22052P   23119.21222499  .00007545  00000-0  49153-3 0  9999,2 52611  53.2165 297.4514 0000949  97.9996 262.1104 15.08846509 52955,6917.86,95.437,540.382,539.069,0.0
52611.0,STARLINK-3980,PAYLOAD,2023-04-29 16:13:17,15.08862834,8.62e-05,53.2166,295.3703,95.3473,264.7618,0.0010791,0.00016938,0.0,0 STARLINK-3980,1 52611U 22052P   23119.67590125  .00016938  00000-0  10791-2 0  9994,2 52611  53.2166 295.3703 0000862  95.3473 264.7618 15.08862834 53395,6917.811,95.436,540.272,539.079,0.0
52611.0,STARLINK-3980,PAYLOAD,2023-04-30 11:17:55,15.08855458,0.0001038,53.2158,291.8014,82.3843,277.7267,0.0003841,5.833e-05,0.0,0 STARLINK-3980,1 52611U 22052P   23120.47077717  .00005833  00000-0  38410-3 0  9992,2 52611  53.2158 291.8014 0001038  82.3843 277.7267 15.08855458 53146,6917.833,95.437,540.416,538.98,0.0
52611.0,STARLINK-3980,PAYLOAD,2023-04-30 17:39:27,15.08855154,6.81e-05,53.2158,290.6105,73.7402,286.3665,0.00056258,8.681e-05,0.0,0 STARLINK-3980,1 52611U 22052P   23120.73573618  .00008681  00000-0  56258-3 0  9996,2 52611  53.2158 290.6105 0000681  73.7402 286.3665 15.08855154 53558,6917.834,95.437,540.17,539.228,0.0
52611.0,STARLINK-3980,PAYLOAD,2023-05-01 11:08:42,15.08838338,7.42e-05,53.216,287.3411,68.593,291.5141,0.00070618,0.00010968,0.0,0 STARLINK-3980,1 52611U 22052P   23121.46438071  .00010968  00000-0  70618-3 0  9997,2 52611  53.2160 287.3411 0000742  68.5930 291.5141 15.08838338 53664,6917.885,95.438,540.264,539.237,0.0
52611.0,STARLINK-3980,PAYLOAD,2023-05-01 17:30:15,15.08838461,7.65e-05,53.2162,286.1514,67.734,292.3733,0.0011189,0.00017563,0.0,0 STARLINK-3980,1 52611U 22052P   23121.72934208  .00017563  00000-0  11189-2 0  9994,2 52611  53.2162 286.1514 0000765  67.7340 292.3733 15.08838461 53335,6917.885,95.438,540.279,539.221,0.0
52611.0,STARLINK-3980,PAYLOAD,2023-05-02 10:59:29,15.08847086,0.0001132,53.2151,282.8782,82.4207,277.6914,0.00053136,8.18e-05,0.0,0 STARLINK-3980,1 52611U 22052P   23122.45798075  .00008180  00000-0  53136-3 0  9999,2 52611  53.2151 282.8782 0001132  82.4207 277.6914 15.08847086 53811,6917.859,95.437,540.507,538.941,0.0
52611.0,STARLINK-3980,PAYLOAD,2023-05-02 14:10:15,15.08849819,0.0001063,53.2147,282.2837,86.1868,273.9245,0.00047645,7.305e-05,0.0,0 STARLINK-3980,1 52611U 22052P   23122.59045911  .00007305  00000-0  47645-3 0  9994,2 52611  53.2147 282.2837 0001063  86.1868 273.9245 15.08849819 53461,6917.85,95.437,540.451,538.98,0.0
52611.0,STARLINK-3980,PAYLOAD,2023-05-02 17:21:01,15.08852443,0.0001107,53.2151,281.6892,82.7508,277.361,0.00053004,8.161e-05,0.0,0 STARLINK-3980,1 52611U 22052P   23122.72293819  .00008161  00000-0  53004-3 0  9998,2 52611  53.2151 281.6892 0001107  82.7508 277.3610 15.08852443 53485,6917.842,95.437,540.473,538.942,0.0
52611.0,STARLINK-3980,PAYLOAD,2023-05-03 10:50:16,15.08837057,9.74e-05,53.2151,278.4173,98.7028,261.4075,-8.156e-05,-1.585e-05,0.0,0 STARLINK-3980,1 52611U 22052P   23123.45157889 -.00001585  00000-0 -81560-4 0  9999,2 52611  53.2151 278.4173 0000974  98.7028 261.4075 15.08837057 53962,6917.889,95.438,540.428,539.081,0.0
52611.0,STARLINK-3980,PAYLOAD,2023-05-03 14:01:02,15.08841832,0.0001042,53.2155,277.823,100.216,259.895,9.6396e-05,1.247e-05,0.0,0 STARLINK-3980,1 52611U 22052P   23123.58405885  .00001247  00000-0  96396-4 0  9991,2 52611  53.2155 277.8230 0001042 100.2160 259.8950 15.08841832 53617,6917.875,95.437,540.461,539.019,0.0
52611.0,STARLINK-3980,PAYLOAD,2023-05-03 20:22:35,15.0884594,9.99e-05,53.2161,276.6328,103.6142,256.4962,0.00024987,3.692e-05,0.0,0 STARLINK-3980,1 52611U 22052P   23123.84901685  .00003692  00000-0  24987-3 0  9991,2 52611  53.2161 276.6328 0000999 103.6142 256.4962 15.08845940 53650,6917.862,95.437,540.418,539.036,0.0
52611.0,STARLINK-3980,PAYLOAD,2023-05-04 13:51:49,15.08842028,7.11e-05,53.2164,273.3624,97.4732,262.6341,0.00085947,0.00013418,0.0,0 STARLINK-3980,1 52611U 22052P   23124.57766138  .00013418  00000-0  85947-3 0  9994,2 52611  53.2164 273.3624 0000711  97.4732 262.6341 15.08842028 53769,6917.874,95.437,540.231,539.247,0.0
52611.0,STARLINK-3980,PAYLOAD,2023-05-04 17:02:36,15.0884896,8.12e-05,53.2165,272.7679,99.5811,260.5273,0.0011914,0.00018729,0.0,0 STARLINK-3980,1 52611U 22052P   23124.71014092  .00018729  00000-0  11914-2 0  9997,2 52611  53.2165 272.7679 0000812  99.5811 260.5273 15.08848960 54152,6917.853,95.437,540.28,539.156,0.0
52611.0,STARLINK-3980,PAYLOAD,2023-05-04 20:13:22,15.08854488,6.72e-05,53.2168,272.1736,97.0654,263.0414,0.0015013,0.00023695,0.0,0 STARLINK-3980,1 52611U 22052P   23124.84261963  .00023695  00000-0  15013-2 0  9994,2 52611  53.2168 272.1736 0000672  97.0654 263.0414 15.08854488 53803,6917.836,95.437,540.166,539.236,0.0
52611.0,STARLINK-3980,PAYLOAD,2023-05-05 02:34:55,15.08848879,6.89e-05,53.217,270.9798,59.5361,300.5699,0.00074584,0.00011605,0.0,0 STARLINK-3980,1 52611U 22052P   23125.10758136  .00011605  00000-0  74584-3 0  9994,2 52611  53.2170 270.9798 0000689  59.5361 300.5699 15.08848879 54211,6917.853,95.437,540.195,539.242,0.0
52611.0,STARLINK-3980,PAYLOAD,2023-05-05 16:53:23,15.0884488,9.65e-05,53.2166,268.3089,92.816,267.2942,0.00044621,6.822e-05,0.0,0 STARLINK-3980,1 52611U 22052P   23125.70374311  .00006822  00000-0  44621-3 0  9993,2 52611  53.2166 268.3089 0000965  92.8160 267.2942 15.08844880 54302,6917.865,95.437,540.398,539.063,0.0
52611.0,STARLINK-3980,PAYLOAD,2023-05-05 18:28:46,15.08848509,0.000101,53.2172,268.0119,91.2504,268.8604,0.00060345,9.331e-05,0.0,0 STARLINK-3980,1 52611U 22052P   23125.76998264  .00009331  00000-0  60345-3 0  9997,2 52611  53.2172 268.0119 0001010  91.2504 268.8604 15.08848509 53940,6917.854,95.437,540.418,539.021,0.0
52611.0,STARLINK-3980,PAYLOAD,2023-05-06 15:08:47,15.08842424,8.94e-05,53.2157,264.1459,66.5564,293.5522,0.0001975,2.857e-05,0.0,0 STARLINK-3980,1 52611U 22052P   23126.63110451  .00002857  00000-0  19750-3 0  9998,2 52611  53.2157 264.1459 0000894  66.5564 293.5522 15.08842424 54076,6917.873,95.437,540.356,539.12,0.0
52611.0,STARLINK-3980,PAYLOAD,2023-05-06 16:44:10,15.08848853,9.78e-05,53.2148,263.8479,65.7436,294.3658,0.00028585,4.266e-05,0.0,0 STARLINK-3980,1 52611U 22052P   23126.69734218  .00004266  00000-0  28585-3 0  9999,2 52611  53.2148 263.8479 0000978  65.7436 294.3658 15.08848853 54459,6917.853,95.437,540.395,539.042,0.0
52611.0,STARLINK-3980,PAYLOAD,2023-05-07 02:16:29,15.0884022,7.31e-05,53.2165,262.0595,91.1843,268.9233,0.00011548,1.551e-05,0.0,0 STARLINK-3980,1 52611U 22052P   23127.09478373  .00001551  00000-0  11548-3 0  9996,2 52611  53.2165 262.0595 0000731  91.1843 268.9233 15.08840220 54513,6917.88,95.438,540.25,539.239,0.0
52611.0,STARLINK-3980,PAYLOAD,2023-05-07 13:24:11,15.08828947,8.41e-05,53.2157,259.9824,84.1677,275.9411,-5.9351e-05,-1.232e-05,0.0,0 STARLINK-3980,1 52611U 22052P   23127.55847199 -.00001232  00000-0 -59351-4 0  9996,2 52611  53.2157 259.9824 0000841  84.1677 275.9411 15.08828947 54218,6917.914,95.438,540.361,539.197,0.0
52611.0,STARLINK-3980,PAYLOAD,2023-05-07 16:34:58,15.08835187,8.47e-05,53.216,259.3846,97.7311,262.3778,-2.127e-05,-6.26e-06,0.0,0 STARLINK-3980,1 52611U 22052P   23127.69095097 -.00000626  00000-0 -21270-4 0  9998,2 52611  53.2160 259.3846 0000847  97.7311 262.3778 15.08835187 54604,6917.895,95.438,540.346,539.174,0.0
52611.0,STARLINK-3980,PAYLOAD,2023-05-08 14:50:21,15.08852033,7.84e-05,53.216,255.2231,85.4996,274.6086,0.00037945,5.758e-05,0.0,0 STARLINK-3980,1 52611U 22052P   23128.61830613  .00005758  00000-0  37945-3 0  9996,2 52611  53.2160 255.2231 0000784  85.4996 274.6086 15.08852033 54742,6917.844,95.437,540.251,539.166,0.0
